{
  "type": "FeatureCollection",
  "features": [
    {
      "type": "Feature",
      "properties": {
        "name": "Liberty Village core",
        "boundary": "King St W (north), C N R rail corridor (south), Strachan Ave (east), Dufferin St (west)",
        "licence": "Open Government Licence \u2013 Toronto",
        "retrieved": "2026-09-29",
        "centreline": {
          "package": "toronto-centreline-tcl",
          "packageId": "1d079757-377b-4564-82df-eb5638583bfb",
          "resourceId": "4dec5884-a5cf-49e7-b562-f835150dc0b1",
          "resource": "centreline-version-2-4326.csv",
          "sha256": "92f68eeea3198888200acc7751550484086e51a3da8fac4a0b36bd8ce622c02f",
          "note": "City of Toronto Centreline (TCL) version 2, WGS84 CSV resource as downloaded 2026-09-29."
        },
        "note": "Ring follows City centreline. Boundary streets are adjacent frontage and are not interior."
      },
      "geometry": {
        "type": "Polygon",
        "coordinates": [
          [
            [
              -79.4273462806492,
              43.6389388990503
            ],
            [
              -79.4270920576597,
              43.6382567656767
            ],
            [
              -79.4269524109163,
              43.6378908514282
            ],
            [
              -79.426638388341,
              43.6370728028344
            ],
            [
              -79.4263508620262,
              43.6363237119284
            ],
            [
              -79.4260650909884,
              43.6355740812534
            ],
            [
              -79.4257935581732,
              43.634861841763
            ],
            [
              -79.4255208068888,
              43.6341579720347
            ],
            [
              -79.4242973527637,
              43.6345003282485
            ],
            [
              -79.4230783231307,
              43.6348414591373
            ],
            [
              -79.420554960995,
              43.6355475752878
            ],
            [
              -79.4203511613234,
              43.6356046012676
            ],
            [
              -79.4195724270566,
              43.6358185950352
            ],
            [
              -79.4184884187,
              43.636116448152
            ],
            [
              -79.4169821123742,
              43.636502486676
            ],
            [
              -79.4143672929348,
              43.6372163297924
            ],
            [
              -79.4123161394188,
              43.6377684948827
            ],
            [
              -79.4122435571668,
              43.6377877561506
            ],
            [
              -79.4112794511776,
              43.6380435963355
            ],
            [
              -79.4104340570274,
              43.6382678996002
            ],
            [
              -79.4108499932659,
              43.639287891948
            ],
            [
              -79.4112421955626,
              43.6402238003183
            ],
            [
              -79.411469505987,
              43.6407583162869
            ],
            [
              -79.4117109476736,
              43.6413623872923
            ],
            [
              -79.4117452856514,
              43.641452337543
            ],
            [
              -79.4119706397866,
              43.6420425693954
            ],
            [
              -79.4126991053045,
              43.6418910588131
            ],
            [
              -79.4130455573284,
              43.6418189338127
            ],
            [
              -79.4135989061208,
              43.6417094015862
            ],
            [
              -79.4137996363985,
              43.6416681287969
            ],
            [
              -79.4150017229239,
              43.6414266938946
            ],
            [
              -79.4166193515885,
              43.6411164196214
            ],
            [
              -79.4173378909811,
              43.640973918595
            ],
            [
              -79.4195532465846,
              43.6405342875916
            ],
            [
              -79.42127183047,
              43.6401669677036
            ],
            [
              -79.4222632688042,
              43.6399697959188
            ],
            [
              -79.4226221060062,
              43.6398969931903
            ],
            [
              -79.4227610817735,
              43.6398699750253
            ],
            [
              -79.4235486865517,
              43.639710919036
            ],
            [
              -79.4242712838119,
              43.6395677290066
            ],
            [
              -79.4248138534591,
              43.6394619068844
            ],
            [
              -79.4260271495921,
              43.6392151515195
            ],
            [
              -79.4273462806492,
              43.6389388990503
            ]
          ]
        ]
      }
    }
  ],
  "reviewNote": "City Centreline ring geometry. A City address point strictly inside it is core (including King St W, Strachan Ave and Dufferin St frontage points); the Douro St street exception is the only address override. Boundary road segments are adjacent, never core."
}
